{
  "type": "FeatureCollection",
  "features": [
    {
      "type": "Feature",
      "geometry": {
        "type": "MultiPoint",
        "crs": {
          "type": "name",
          "properties": {
            "name": "EPSG:4326"
          }
        },
        "coordinates": [
          [
            -63.859748922851026,
            11.06611484444297
          ],
          [
            -63.85754440012992,
            11.070080426779242
          ],
          [
            -63.85686235966729,
            11.09885622608542
          ],
          [
            -63.85972739085316,
            11.07131884051612
          ],
          [
            -63.859917861511285,
            11.071597947502497
          ],
          [
            -63.85185068318103,
            11.101412179987571
          ],
          [
            -63.86008925659403,
            11.074040534185272
          ],
          [
            -63.86063429467523,
            11.076944394614358
          ],
          [
            -63.863030535254005,
            11.075510491359138
          ],
          [
            -63.85614880035336,
            11.075410930229376
          ],
          [
            -63.854090346677815,
            11.075887653080194
          ],
          [
            -63.85528566143984,
            11.077615209965241
          ],
          [
            -63.86135691327872,
            11.082240340336208
          ],
          [
            -63.85600670367884,
            11.078140621807902
          ],
          [
            -63.86265591116017,
            11.082033215007934
          ],
          [
            -63.86161561694517,
            11.081332153674678
          ],
          [
            -63.86655355315932,
            11.078607921057287
          ],
          [
            -63.86545788187578,
            11.074637278180244
          ],
          [
            -63.862046484739125,
            11.082288706933694
          ],
          [
            -63.86126631599732,
            11.081787263309792
          ],
          [
            -63.8606049773581,
            11.082171607009606
          ],
          [
            -63.86228755036824,
            11.08581069006736
          ]
        ]
      },
      "properties": {
        "name": "Cuadrante P-02 IAPOLEBNE",
        "sector": "La Fuente - El Salado",
        "municipio": "Antolín del Campo",
        "id": "cuadrantePoligono_0"
      }
    },
    {
      "type": "Feature",
      "geometry": {
        "type": "MultiPoint",
        "crs": {
          "type": "name",
          "properties": {
            "name": "EPSG:4326"
          }
        },
        "coordinates": [
          [
            -63.83367197494406,
            11.094329719194395
          ],
          [
            -63.84691215192308,
            11.078235824481963
          ],
          [
            -63.834251821588786,
            11.074876147529855
          ],
          [
            -63.833309386584666,
            11.074253957458668
          ]
        ]
      },
      "properties": {
        "name": "Cuadrante P-01 IAPOLEBNE",
        "sector": "Paraguachí - Guarame",
        "municipio": "Antolín del Campo",
        "id": "cuadrantePoligono_1"
      }
    }
  ]
}