{
  "type": "FeatureCollection",
  "features": [
    {
      "type": "Feature",
      "geometry": {
        "type": "Point",
        "crs": {
          "type": "name",
          "properties": {
            "name": "EPSG:4326"
          }
        },
        "coordinates": [
          -63.850530740506606,
          10.957908197030264
        ]
      },
      "properties": {
        "tipo": "Parada de Autobús",
        "nombre": "Parada de Bus Playa El Agua",
        "ubicacion": "Porlamar, Isla de Margarita, Venezuela",
        "descripcion": "Punto de salida/parada para las unidades que van hacia la zona hotelera y turística de Playa El Agua.",
        "id": "transporte_0"
      }
    },
    {
      "type": "Feature",
      "geometry": {
        "type": "Point",
        "crs": {
          "type": "name",
          "properties": {
            "name": "EPSG:4326"
          }
        },
        "coordinates": [
          -63.863349318900724,
          10.952569403489834
        ]
      },
      "properties": {
        "tipo": "Parada de Autobús",
        "nombre": "Parada CB Vencemos",
        "ubicacion": "Porlamar, Isla de Margarita, Venezuela",
        "descripcion": "Parada de transporte en las inmediaciones o ruta hacia la cementera Vencemos.",
        "id": "transporte_1"
      }
    },
    {
      "type": "Feature",
      "geometry": {
        "type": "Point",
        "crs": {
          "type": "name",
          "properties": {
            "name": "EPSG:4326"
          }
        },
        "coordinates": [
          -63.856361126822556,
          10.959369617808997
        ]
      },
      "properties": {
        "tipo": "Terminal Principal",
        "nombre": "Terminal de pasajeros de Porlamar",
        "ubicacion": "Porlamar, Isla de Margarita, Venezuela",
        "descripcion": "Terminal principal de transporte terrestre en Porlamar.",
        "id": "transporte_2"
      }
    },
    {
      "type": "Feature",
      "geometry": {
        "type": "Point",
        "crs": {
          "type": "name",
          "properties": {
            "name": "EPSG:4326"
          }
        },
        "coordinates": [
          -63.964514955264654,
          11.081175548128627
        ]
      },
      "properties": {
        "tipo": "Terminal Principal",
        "nombre": "Terminal de Pasajeros 'Ciudad de Juangriego'",
        "ubicacion": "Juan Griego, Isla de Margarita, Venezuela",
        "descripcion": "Terminal que conecta el norte de la isla con otras localidades.",
        "id": "transporte_3"
      }
    },
    {
      "type": "Feature",
      "geometry": {
        "type": "Point",
        "crs": {
          "type": "name",
          "properties": {
            "name": "EPSG:4326"
          }
        },
        "coordinates": [
          -63.84782360143827,
          10.957729465966292
        ]
      },
      "properties": {
        "tipo": "Parada de Autobús / Línea de Transporte",
        "nombre": "Parada Línea Matasiete",
        "ubicacion": "Porlamar, Isla de Margarita, Venezuela",
        "descripcion": "Estación de la línea de transporte público Matasiete.",
        "id": "transporte_4"
      }
    },
    {
      "type": "Feature",
      "geometry": {
        "type": "Point",
        "crs": {
          "type": "name",
          "properties": {
            "name": "EPSG:4326"
          }
        },
        "coordinates": [
          -63.84590755840224,
          10.968432744707899
        ]
      },
      "properties": {
        "tipo": "Histórico / Antiguo Terminal",
        "nombre": "Antiguo Terminal de Pasajeros de Margarita",
        "ubicacion": "Porlamar, Isla de Margarita, Venezuela",
        "descripcion": "Antigua estación de autobuses de la ciudad.",
        "id": "transporte_5"
      }
    },
    {
      "type": "Feature",
      "geometry": {
        "type": "Point",
        "crs": {
          "type": "name",
          "properties": {
            "name": "EPSG:4326"
          }
        },
        "coordinates": [
          -63.85183545314054,
          10.957792113267377
        ]
      },
      "properties": {
        "tipo": "Parada de Autobús",
        "nombre": "Parada Bus del Valle del Espíritu Santo",
        "ubicacion": "Porlamar, Isla de Margarita, Venezuela",
        "descripcion": "Ruta específica que conecta Porlamar con el Valle del Espíritu Santo (Basílica de la Virgen del Valle).",
        "id": "transporte_6"
      }
    },
    {
      "type": "Feature",
      "geometry": {
        "type": "Point",
        "crs": {
          "type": "name",
          "properties": {
            "name": "EPSG:4326"
          }
        },
        "coordinates": [
          -63.85203312170976,
          10.954652733364211
        ]
      },
      "properties": {
        "tipo": "Parada de Autobús",
        "nombre": "Parada de Buses Valle Verde",
        "ubicacion": "Sector Valle Verde, Porlamar, Isla de Margarita, Venezuela",
        "descripcion": "Punto de parada para rutas locales hacia Valle Verde.",
        "id": "transporte_7"
      }
    },
    {
      "type": "Feature",
      "geometry": {
        "type": "Point",
        "crs": {
          "type": "name",
          "properties": {
            "name": "EPSG:4326"
          }
        },
        "coordinates": [
          -63.86026857188409,
          10.953274466996787
        ]
      },
      "properties": {
        "tipo": "Parada de Autobús / Referencia",
        "nombre": "Parada Bomba Nueva Cádiz",
        "ubicacion": "Av. Juan Bautista Arismendi (cerca de la Estación de Servicio Nueva Cádiz), Porlamar, Isla de Margarita, Venezuela",
        "descripcion": "Parada de transporte público ubicada en las inmediaciones de la estación de servicio.",
        "id": "transporte_8"
      }
    },
    {
      "type": "Feature",
      "geometry": {
        "type": "Point",
        "crs": {
          "type": "name",
          "properties": {
            "name": "EPSG:4326"
          }
        },
        "coordinates": [
          -63.86976189004134,
          10.957122105737795
        ]
      },
      "properties": {
        "tipo": "Terminal de Autobuses",
        "nombre": "Terminal Pasajeros Bus Margarita",
        "ubicacion": "Porlamar, Isla de Margarita, Venezuela",
        "descripcion": "Estación vinculada al sistema de transporte superficial Bus Margarita.",
        "id": "transporte_9"
      }
    },
    {
      "type": "Feature",
      "geometry": {
        "type": "Point",
        "crs": {
          "type": "name",
          "properties": {
            "name": "EPSG:4326"
          }
        },
        "coordinates": [
          -63.85170628278805,
          10.957401200665224
        ]
      },
      "properties": {
        "tipo": "Parada de Autobús",
        "nombre": "Parada Línea Buses Juangriego",
        "ubicacion": "Porlamar, Isla de Margarita, Venezuela",
        "descripcion": "Punto en Porlamar para abordar los autobuses con destino a Juan Griego.",
        "id": "transporte_10"
      }
    },
    {
      "type": "Feature",
      "geometry": {
        "type": "Point",
        "crs": {
          "type": "name",
          "properties": {
            "name": "EPSG:4326"
          }
        },
        "coordinates": [
          -63.846909538076495,
          10.957014660913364
        ]
      },
      "properties": {
        "tipo": "Parada de Autobús / Colectivos",
        "nombre": "Parada Porlamar-Pampatar",
        "ubicacion": "Porlamar, Isla de Margarita, Venezuela",
        "descripcion": "Punto de conexión directa entre las ciudades de Porlamar y Pampatar.",
        "id": "transporte_11"
      }
    },
    {
      "type": "Feature",
      "geometry": {
        "type": "Point",
        "crs": {
          "type": "name",
          "properties": {
            "name": "EPSG:4326"
          }
        },
        "coordinates": [
          -63.87178728217402,
          10.954912285465266
        ]
      },
      "properties": {
        "tipo": "Parada de Autobús",
        "nombre": "Parada Grupo Leiros / GUAO",
        "ubicacion": "Porlamar, Isla de Margarita, Venezuela",
        "descripcion": "Parada de transporte con referencia al Grupo Leiros.",
        "id": "transporte_12"
      }
    },
    {
      "type": "Feature",
      "geometry": {
        "type": "Point",
        "crs": {
          "type": "name",
          "properties": {
            "name": "EPSG:4326"
          }
        },
        "coordinates": [
          -63.867270261226736,
          10.960707161977993
        ]
      },
      "properties": {
        "tipo": "Parada de Autobús",
        "nombre": "Parada Mercado de Los Conejeros / Prolicor",
        "ubicacion": "Sector Los Conejeros, Porlamar, Isla de Margarita, Venezuela",
        "descripcion": "Parada estratégica para usuarios del Mercado de Los Conejeros.",
        "id": "transporte_13"
      }
    },
    {
      "type": "Feature",
      "geometry": {
        "type": "Point",
        "crs": {
          "type": "name",
          "properties": {
            "name": "EPSG:4326"
          }
        },
        "coordinates": [
          -63.86857981771985,
          10.958638907178393
        ]
      },
      "properties": {
        "tipo": "Parada de Autobús",
        "nombre": "Parada Prosein / Traki",
        "ubicacion": "Av. Santiago Mariño / Av. Bolívar, Porlamar, Isla de Margarita, Venezuela",
        "descripcion": "Parada de referencia comercial frente a las tiendas Prosein y Traki.",
        "id": "transporte_14"
      }
    },
    {
      "type": "Feature",
      "geometry": {
        "type": "Point",
        "crs": {
          "type": "name",
          "properties": {
            "name": "EPSG:4326"
          }
        },
        "coordinates": [
          -63.85345985394421,
          10.95792556169983
        ]
      },
      "properties": {
        "tipo": "Parada de Carros por Puesto",
        "nombre": "Parada de carros Porlamar-Manzanillo",
        "ubicacion": "Porlamar, Isla de Margarita, Venezuela",
        "descripcion": "Zona de carga para vehículos por puesto de la ruta Porlamar - Manzanillo.",
        "id": "transporte_15"
      }
    }
  ]
}