{"type":"FeatureCollection","features":[{"type":"Feature","properties":{},"geometry":{"type":"Point","coordinates":[-63.901603,10.63068]}},{"type":"Feature","properties":{},"geometry":{"type":"Point","coordinates":[-63.913653,10.739207]}},{"type":"Feature","properties":{},"geometry":{"type":"Point","coordinates":[-63.92272,10.947475]}},{"type":"Feature","properties":{},"geometry":{"type":"Point","coordinates":[-63.886174,10.938088]}},{"type":"Feature","properties":{},"geometry":{"type":"Point","coordinates":[-63.890699,10.946487]}},{"type":"Feature","properties":{},"geometry":{"type":"LineString","coordinates":[[-63.8908,10.946487],[-63.888766,10.942287],[-63.886727,10.938132],[-63.886164,10.938028]]}},{"type":"Feature","properties":{},"geometry":{"type":"LineString","coordinates":[[-63.890675,10.946497],[-63.891606,10.94619],[-63.893974,10.945943],[-63.896846,10.946042],[-63.899466,10.945695],[-63.90259,10.946141],[-63.9105,10.946289],[-63.912918,10.945943],[-63.915394,10.946476],[-63.919836,10.946659],[-63.922693,10.946586],[-63.922743,10.947427],[-63.922743,10.947427]]}}]}